CCSDS_OMM_VERS = 2.0
CREATION_DATE  = 
ORIGINATOR     = 

OBJECT_NAME    = STARLINK-35567
OBJECT_ID      = 2025-262S
CENTER_NAME    = EARTH
REF_FRAME      = TEME
TIME_SYSTEM    = UTC
MEAN_ELEMENT_THEORY = SGP/SGP4

EPOCH          = 2025-12-05T06:00:02.000160
MEAN_MOTION    = 15.51204083
ECCENTRICITY   = .00008966
INCLINATION    = 43.0001
RA_OF_ASC_NODE = 114.8525
ARG_OF_PERICENTER = 277.9040
MEAN_ANOMALY   = 3.0850

EPHEMERIS_TYPE = 0
CLASSIFICATION_TYPE = U
NORAD_CAT_ID   = 66472
ELEMENT_SET_NO = 999
REV_AT_EPOCH   = 443
BSTAR          = -.17076198E-1
MEAN_MOTION_DOT = -.940386E-2
MEAN_MOTION_DDOT = 0

CCSDS_OMM_VERS = 2.0
CREATION_DATE  = 
ORIGINATOR     = 

OBJECT_NAME    = STARLINK-35568
OBJECT_ID      = 2025-262T
CENTER_NAME    = EARTH
REF_FRAME      = TEME
TIME_SYSTEM    = UTC
MEAN_ELEMENT_THEORY = SGP/SGP4

EPOCH          = 2025-12-05T06:00:02.000160
MEAN_MOTION    = 15.51201962
ECCENTRICITY   = .00012049
INCLINATION    = 42.9998
RA_OF_ASC_NODE = 114.8477
ARG_OF_PERICENTER = 267.2604
MEAN_ANOMALY   = 15.6399

EPHEMERIS_TYPE = 0
CLASSIFICATION_TYPE = U
NORAD_CAT_ID   = 66473
ELEMENT_SET_NO = 999
REV_AT_EPOCH   = 443
BSTAR          = -.16589783E-1
MEAN_MOTION_DOT = -.915694E-2
MEAN_MOTION_DDOT = 0

CCSDS_OMM_VERS = 2.0
CREATION_DATE  = 
ORIGINATOR     = 

OBJECT_NAME    = STARLINK-35620
OBJECT_ID      = 2025-262U
CENTER_NAME    = EARTH
REF_FRAME      = TEME
TIME_SYSTEM    = UTC
MEAN_ELEMENT_THEORY = SGP/SGP4

EPOCH          = 2025-12-05T06:00:02.000160
MEAN_MOTION    = 15.51209315
ECCENTRICITY   = .00009126
INCLINATION    = 42.9999
RA_OF_ASC_NODE = 114.8424
ARG_OF_PERICENTER = 279.2354
MEAN_ANOMALY   = 5.5834

EPHEMERIS_TYPE = 0
CLASSIFICATION_TYPE = U
NORAD_CAT_ID   = 66474
ELEMENT_SET_NO = 999
REV_AT_EPOCH   = 443
BSTAR          = -.17189328E-1
MEAN_MOTION_DOT = -.946279E-2
MEAN_MOTION_DDOT = 0

CCSDS_OMM_VERS = 2.0
CREATION_DATE  = 
ORIGINATOR     = 

OBJECT_NAME    = STARLINK-35538
OBJECT_ID      = 2025-262V
CENTER_NAME    = EARTH
REF_FRAME      = TEME
TIME_SYSTEM    = UTC
MEAN_ELEMENT_THEORY = SGP/SGP4

EPOCH          = 2025-12-05T06:00:02.000160
MEAN_MOTION    = 15.51199881
ECCENTRICITY   = .00010825
INCLINATION    = 42.9998
RA_OF_ASC_NODE = 114.8385
ARG_OF_PERICENTER = 267.4486
MEAN_ANOMALY   = 19.2877

EPHEMERIS_TYPE = 0
CLASSIFICATION_TYPE = U
NORAD_CAT_ID   = 66475
ELEMENT_SET_NO = 999
REV_AT_EPOCH   = 443
BSTAR          = -.16542675E-1
MEAN_MOTION_DOT = -.913209E-2
MEAN_MOTION_DDOT = 0

CCSDS_OMM_VERS = 2.0
CREATION_DATE  = 
ORIGINATOR     = 

OBJECT_NAME    = STARLINK-35372
OBJECT_ID      = 2025-262W
CENTER_NAME    = EARTH
REF_FRAME      = TEME
TIME_SYSTEM    = UTC
MEAN_ELEMENT_THEORY = SGP/SGP4

EPOCH          = 2025-12-05T06:00:02.000160
MEAN_MOTION    = 15.51175162
ECCENTRICITY   = .00010124
INCLINATION    = 42.9998
RA_OF_ASC_NODE = 114.8331
ARG_OF_PERICENTER = 260.4262
MEAN_ANOMALY   = 28.2614

EPHEMERIS_TYPE = 0
CLASSIFICATION_TYPE = U
NORAD_CAT_ID   = 66476
ELEMENT_SET_NO = 999
REV_AT_EPOCH   = 432
BSTAR          = -.16293116E-1
MEAN_MOTION_DOT = -.887691E-2
MEAN_MOTION_DDOT = 0

CCSDS_OMM_VERS = 2.0
CREATION_DATE  = 
ORIGINATOR     = 

OBJECT_NAME    = STARLINK-35354
OBJECT_ID      = 2025-262X
CENTER_NAME    = EARTH
REF_FRAME      = TEME
TIME_SYSTEM    = UTC
MEAN_ELEMENT_THEORY = SGP/SGP4

EPOCH          = 2025-12-05T06:00:02.000160
MEAN_MOTION    = 15.51203458
ECCENTRICITY   = .00009194
INCLINATION    = 42.9999
RA_OF_ASC_NODE = 114.8231
ARG_OF_PERICENTER = 268.4942
MEAN_ANOMALY   = 23.9962

EPHEMERIS_TYPE = 0
CLASSIFICATION_TYPE = U
NORAD_CAT_ID   = 66477
ELEMENT_SET_NO = 999
REV_AT_EPOCH   = 443
BSTAR          = -.17110893E-1
MEAN_MOTION_DOT = -.942128E-2
MEAN_MOTION_DDOT = 0

CCSDS_OMM_VERS = 2.0
CREATION_DATE  = 
ORIGINATOR     = 

OBJECT_NAME    = STARLINK-35283
OBJECT_ID      = 2025-262Y
CENTER_NAME    = EARTH
REF_FRAME      = TEME
TIME_SYSTEM    = UTC
MEAN_ELEMENT_THEORY = SGP/SGP4

EPOCH          = 2025-12-05T06:00:02.000160
MEAN_MOTION    = 15.51200480
ECCENTRICITY   = .00010835
INCLINATION    = 43.0000
RA_OF_ASC_NODE = 114.8176
ARG_OF_PERICENTER = 262.6656
MEAN_ANOMALY   = 31.7375

EPHEMERIS_TYPE = 0
CLASSIFICATION_TYPE = U
NORAD_CAT_ID   = 66478
ELEMENT_SET_NO = 999
REV_AT_EPOCH   = 443
BSTAR          = -.16532304E-1
MEAN_MOTION_DOT = -.9127E-2
MEAN_MOTION_DDOT = 0

CCSDS_OMM_VERS = 2.0
CREATION_DATE  = 
ORIGINATOR     = 

OBJECT_NAME    = STARLINK-35581
OBJECT_ID      = 2025-262Z
CENTER_NAME    = EARTH
REF_FRAME      = TEME
TIME_SYSTEM    = UTC
MEAN_ELEMENT_THEORY = SGP/SGP4

EPOCH          = 2025-12-05T06:00:02.000160
MEAN_MOTION    = 15.51202451
ECCENTRICITY   = .00009418
INCLINATION    = 42.9999
RA_OF_ASC_NODE = 114.8274
ARG_OF_PERICENTER = 277.9282
MEAN_ANOMALY   = 12.6422

EPHEMERIS_TYPE = 0
CLASSIFICATION_TYPE = U
NORAD_CAT_ID   = 66479
ELEMENT_SET_NO = 999
REV_AT_EPOCH   = 443
BSTAR          = -.16991445E-1
MEAN_MOTION_DOT = -.936051E-2
MEAN_MOTION_DDOT = 0

CCSDS_OMM_VERS = 2.0
CREATION_DATE  = 
ORIGINATOR     = 

OBJECT_NAME    = STARLINK-35670
OBJECT_ID      = 2025-262AA
CENTER_NAME    = EARTH
REF_FRAME      = TEME
TIME_SYSTEM    = UTC
MEAN_ELEMENT_THEORY = SGP/SGP4

EPOCH          = 2025-12-05T06:00:02.000160
MEAN_MOTION    = 15.51198399
ECCENTRICITY   = .00011493
INCLINATION    = 43.0000
RA_OF_ASC_NODE = 114.8124
ARG_OF_PERICENTER = 265.5617
MEAN_ANOMALY   = 30.7618

EPHEMERIS_TYPE = 0
CLASSIFICATION_TYPE = U
NORAD_CAT_ID   = 66480
ELEMENT_SET_NO = 999
REV_AT_EPOCH   = 443
BSTAR          = -.16564825E-1
MEAN_MOTION_DOT = -.914305E-2
MEAN_MOTION_DDOT = 0

CCSDS_OMM_VERS = 2.0
CREATION_DATE  = 
ORIGINATOR     = 

OBJECT_NAME    = STARLINK-35698
OBJECT_ID      = 2025-262AB
CENTER_NAME    = EARTH
REF_FRAME      = TEME
TIME_SYSTEM    = UTC
MEAN_ELEMENT_THEORY = SGP/SGP4

EPOCH          = 2025-12-05T06:00:02.000160
MEAN_MOTION    = 15.51192865
ECCENTRICITY   = .00009724
INCLINATION    = 42.9999
RA_OF_ASC_NODE = 114.8074
ARG_OF_PERICENTER = 277.4573
MEAN_ANOMALY   = 20.7840

EPHEMERIS_TYPE = 0
CLASSIFICATION_TYPE = U
NORAD_CAT_ID   = 66481
ELEMENT_SET_NO = 999
REV_AT_EPOCH   = 443
BSTAR          = -.16725881E-1
MEAN_MOTION_DOT = -.922288E-2
MEAN_MOTION_DDOT = 0

CCSDS_OMM_VERS = 2.0
CREATION_DATE  = 
ORIGINATOR     = 

OBJECT_NAME    = STARLINK-35648
OBJECT_ID      = 2025-262AC
CENTER_NAME    = EARTH
REF_FRAME      = TEME
TIME_SYSTEM    = UTC
MEAN_ELEMENT_THEORY = SGP/SGP4

EPOCH          = 2025-12-05T06:00:02.000160
MEAN_MOTION    = 15.51203305
ECCENTRICITY   = .00009785
INCLINATION    = 42.9998
RA_OF_ASC_NODE = 114.8028
ARG_OF_PERICENTER = 274.0421
MEAN_ANOMALY   = 26.1146

EPHEMERIS_TYPE = 0
CLASSIFICATION_TYPE = U
NORAD_CAT_ID   = 66482
ELEMENT_SET_NO = 999
REV_AT_EPOCH   = 427
BSTAR          = -.17100525E-1
MEAN_MOTION_DOT = -.94161E-2
MEAN_MOTION_DDOT = 0

CCSDS_OMM_VERS = 2.0
CREATION_DATE  = 
ORIGINATOR     = 

OBJECT_NAME    = STARLINK-35654
OBJECT_ID      = 2025-262AD
CENTER_NAME    = EARTH
REF_FRAME      = TEME
TIME_SYSTEM    = UTC
MEAN_ELEMENT_THEORY = SGP/SGP4

EPOCH          = 2025-12-05T06:00:02.000160
MEAN_MOTION    = 15.51193905
ECCENTRICITY   = .00009058
INCLINATION    = 43.0000
RA_OF_ASC_NODE = 114.7971
ARG_OF_PERICENTER = 277.0583
MEAN_ANOMALY   = 25.0169

EPHEMERIS_TYPE = 0
CLASSIFICATION_TYPE = U
NORAD_CAT_ID   = 66483
ELEMENT_SET_NO = 999
REV_AT_EPOCH   = 443
BSTAR          = -.16779365E-1
MEAN_MOTION_DOT = -.925023E-2
MEAN_MOTION_DDOT = 0

CCSDS_OMM_VERS = 2.0
CREATION_DATE  = 
ORIGINATOR     = 

OBJECT_NAME    = STARLINK-35371
OBJECT_ID      = 2025-262AE
CENTER_NAME    = EARTH
REF_FRAME      = TEME
TIME_SYSTEM    = UTC
MEAN_ELEMENT_THEORY = SGP/SGP4

EPOCH          = 2025-12-05T06:00:02.000160
MEAN_MOTION    = 15.51198667
ECCENTRICITY   = .00010829
INCLINATION    = 42.9998
RA_OF_ASC_NODE = 114.7935
ARG_OF_PERICENTER = 263.5006
MEAN_ANOMALY   = 40.4889

EPHEMERIS_TYPE = 0
CLASSIFICATION_TYPE = U
NORAD_CAT_ID   = 66484
ELEMENT_SET_NO = 999
REV_AT_EPOCH   = 443
BSTAR          = -.16518806E-1
MEAN_MOTION_DOT = -.911958E-2
MEAN_MOTION_DDOT = 0

CCSDS_OMM_VERS = 2.0
CREATION_DATE  = 
ORIGINATOR     = 

OBJECT_NAME    = STARLINK-34774
OBJECT_ID      = 2025-263A
CENTER_NAME    = EARTH
REF_FRAME      = TEME
TIME_SYSTEM    = UTC
MEAN_ELEMENT_THEORY = SGP/SGP4

EPOCH          = 2025-12-05T06:00:02.000160
MEAN_MOTION    = 15.63878076
ECCENTRICITY   = .00014549
INCLINATION    = 42.9992
RA_OF_ASC_NODE = 169.1480
ARG_OF_PERICENTER = 275.6280
MEAN_ANOMALY   = 196.3690

EPHEMERIS_TYPE = 0
CLASSIFICATION_TYPE = U
NORAD_CAT_ID   = 66485
ELEMENT_SET_NO = 999
REV_AT_EPOCH   = 443
BSTAR          = -.24273708E-1
MEAN_MOTION_DOT = -.2054051E-1
MEAN_MOTION_DDOT = 0

CCSDS_OMM_VERS = 2.0
CREATION_DATE  = 
ORIGINATOR     = 

OBJECT_NAME    = STARLINK-34844
OBJECT_ID      = 2025-263B
CENTER_NAME    = EARTH
REF_FRAME      = TEME
TIME_SYSTEM    = UTC
MEAN_ELEMENT_THEORY = SGP/SGP4

EPOCH          = 2025-12-05T06:00:02.000160
MEAN_MOTION    = 15.63881213
ECCENTRICITY   = .00015167
INCLINATION    = 42.9990
RA_OF_ASC_NODE = 169.1424
ARG_OF_PERICENTER = 274.7017
MEAN_ANOMALY   = 199.2117

EPHEMERIS_TYPE = 0
CLASSIFICATION_TYPE = U
NORAD_CAT_ID   = 66486
ELEMENT_SET_NO = 999
REV_AT_EPOCH   = 438
BSTAR          = -.24344751E-1
MEAN_MOTION_DOT = -.2059576E-1
MEAN_MOTION_DDOT = 0

